*******************************************************************************
 Revised: Sep 01, 2023  International Space Station (ISS) / (Earth)     -125544
 
 ISS (International Space Station) (1998-067A)
  Large multi-module manned earth-orbiting space station used for research and
  development purposes.
 
  Trajectory is TLE-based. Predicts run for 4 weeks into future, but are of
  low accuracy for times more than a few days past the revision date above.
 
 Launched: 1998-Nov-20 (subsequent assembly in orbit through 2004)
*******************************************************************************


*******************************************************************************
Ephemeris / WWW_USER Fri Sep  1 14:20:03 2023 Pasadena, USA      / Horizons    
*******************************************************************************
Target body name: International Space Station (spacecraft) (-125544) {source: iss}
Center body name: Earth (399)                     {source: DE441}
Center-site name: (user defined site below)
*******************************************************************************
Start time      : A.D. 2023-Sep-01 00:00:00.0000 UT      
Stop  time      : A.D. 2023-Sep-08 00:00:00.0000 UT      
Step-size       : 15 minutes
*******************************************************************************
Target pole/equ : undefined
Target radii    : undefined                                                    
Center geodetic : 271.7566, 40.1164, .233         {E-lon(deg),Lat(deg),Alt(km)}
Center cylindric: 271.7566,4884.56798,4088.02805  {E-lon(deg),Dxy(km),Dz(km)}
Center pole/equ : ITRF93                          {East-longitude positive}
Center radii    : 6378.137, 6378.137, 6356.752 km {Equator_a, b, pole_c}       
Target primary  : Earth
Vis. interferer : MOON (R_eq= 1737.400) km        {source: DE441}
Rel. light bend : Sun                             {source: DE441}
Rel. lght bnd GM: 1.3271E+11 km^3/s^2                                          
Atmos refraction: NO (AIRLESS)
RA format       : DEG
Time format     : JD  
Calendar mode   : Mixed Julian/Gregorian
RTS-only print  : NO       
EOP file        : eop.230830.p231123                                           
EOP coverage    : DATA-BASED 1962-JAN-20 TO 2023-AUG-30. PREDICTS-> 2023-NOV-22
Units conversion: 1 au= 149597870.700 km, c= 299792.458 km/s, 1 day= 86400.0 s 
Table cut-offs 1: Elevation (-90.0deg=NO ),Airmass (>38.000=NO), Daylight (NO )
Table cut-offs 2: Solar elongation (  0.0,180.0=NO ),Local Hour Angle( 0.0=NO )
Table cut-offs 3: RA/DEC angular rate (     0.0=NO )                           
******************************************************************************************************************
Date_________JDUT     R.A.___(ICRF)___DEC  dRA*cosD d(DEC)/dt  Azi____(a-app)___Elev             delta      deldot
******************************************************************************************************************
$$SOE
2460195.375000000 *    78.02267 -31.76278  257837.0  -463450.  268.722322 -53.160263  1.0722092999E+04   0.1060043
2460195.385416667 *    95.74591 -66.10746  74717.11  -526015.  211.528402 -48.651874  1.0102951135E+04  -1.4677815
2460195.395833333 *   305.32884 -74.07067  26021.88  625307.6  159.897385 -36.959480  8.3074041453E+03  -2.2580855
2460195.406250000 *   329.91050 -26.74320  454168.1  690383.6  102.344792 -28.158356  6.8166939460E+03  -0.5193940
2460195.416666667 *    13.92451   6.45763  694598.3  176041.9   42.181024 -33.648512  7.7848740085E+03   2.3799289
2460195.427083333 *    55.94800   0.58646  480293.8  -270096.  353.864953 -49.055484  1.0189761064E+04   2.5027217
2460195.437500000 *    82.86552 -23.38734  295650.2  -394671.  298.080594 -61.692257  1.1706287433E+04   0.6648527
2460195.447916667 *   104.59948 -52.43116  202867.2  -440385.  232.657380 -57.198609  1.1202040878E+04  -1.7927966
2460195.458333333 *   161.83930 -84.08928  394677.3  -384297.  187.385847 -39.059377  8.6490571604E+03  -3.6605114
2460195.468750000 *   322.25132 -48.24050  454656.4  843597.6  136.401983 -20.549501  5.4617163466E+03  -2.5134280
2460195.479166667 *    15.81593   4.21536  798684.3  364610.4   62.362205 -22.924599  5.9047739652E+03   3.2799433
2460195.489583333 *    60.87025   3.92729  484455.6  -233722.   19.106099 -44.150784  9.4800503149E+03   3.8834126
2460195.500000000 *    87.96640 -17.44687  314735.2  -352258.  336.967508 -65.826885  1.2101476350E+04   1.6967916
